STARLINK-36924          
1 68054U 26041Q   26079.79608758  .00170684  00000+0  10928-2 0  9997
2 68054  53.1608   6.5771 0001023  73.6581 286.4552 15.75291123  2976
STARLINK-35998          
1 68055U 26041R   26079.84060720  .00346448  00000+0  16787-2 0  9997
2 68055  53.1597   6.1347 0001218  49.6521 310.4608 15.81010417  2985
STARLINK-36845          
1 68056U 26041S   26079.83910470  .00256429  00000+0  12583-2 0  9992
2 68056  53.1596   6.1243 0000771  68.2670 291.8435 15.80979368  2983
STARLINK-36954          
1 68057U 26041T   26079.79576145  .00157468  00000+0  10100-2 0  9991
2 68057  53.1607   6.5741 0001057  60.3341 299.7785 15.75292330  2975
STARLINK-36899          
1 68058U 26041U   26079.79154816  .00259528  00000+0  16411-2 0  9990
2 68058  53.1605   6.5458 0000956  49.9235 310.1869 15.75304531  2979
STARLINK-36917          
1 68059U 26041V   26079.75003471  .00022987  00000+0  15372-3 0  9990
2 68059  53.1599   6.6416 0001165  85.8721  92.0389 15.75239012  4155
STARLINK-36959          
1 68060U 26041W   26079.75003471 -.00009647  00000+0 -58795-4 0  9999
2 68060  53.1600   6.6976 0001000  76.5655  73.7234 15.75252572  4153
STARLINK-36915          
1 68061U 26041X   26079.83535463  .00212355  00000+0  10485-2 0  9992
2 68061  53.1596   6.0981 0000867  83.0170 277.0951 15.80969620  2982
STARLINK-36952          
1 68062U 26041Y   26079.79122195  .00197775  00000+0  12609-2 0  9990
2 68062  53.1607   6.5439 0000764  79.1056 281.0051 15.75302744  2971
STARLINK-37000          
1 68063U 26041Z   26078.37981295 -.00024486  00000+0 -12107-3 0  9992
2 68063  53.1597  13.3751 0000387 129.0929 231.0129 15.80839388  2750
STARLINK-36996          
1 68064U 26041AA  26079.83310346  .00245180  00000+0  12052-2 0  9990
2 68064  53.1596   6.0831 0000731  95.1305 264.9801 15.80972825  2983
STARLINK-36836          
1 68065U 26041AB  26079.83160225  .00245855  00000+0  12077-2 0  9996
2 68065  53.1595   6.0728 0001019  83.6660 276.4479 15.80987102  2987
