CCSDS_OMM_VERS = 2.0
CREATION_DATE  = 
ORIGINATOR     = 

OBJECT_NAME    = STARLINK-36924
OBJECT_ID      = 2026-041Q
CENTER_NAME    = EARTH
REF_FRAME      = TEME
TIME_SYSTEM    = UTC
MEAN_ELEMENT_THEORY = SGP/SGP4

EPOCH          = 2026-03-20T19:06:21.966912
MEAN_MOTION    = 15.75291123
ECCENTRICITY   = .0001023
INCLINATION    = 53.1608
RA_OF_ASC_NODE = 6.5771
ARG_OF_PERICENTER = 73.6581
MEAN_ANOMALY   = 286.4552

EPHEMERIS_TYPE = 0
CLASSIFICATION_TYPE = U
NORAD_CAT_ID   = 68054
ELEMENT_SET_NO = 999
REV_AT_EPOCH   = 297
BSTAR          = .10928E-2
MEAN_MOTION_DOT = .170684E-2
MEAN_MOTION_DDOT = 0

CCSDS_OMM_VERS = 2.0
CREATION_DATE  = 
ORIGINATOR     = 

OBJECT_NAME    = STARLINK-35998
OBJECT_ID      = 2026-041R
CENTER_NAME    = EARTH
REF_FRAME      = TEME
TIME_SYSTEM    = UTC
MEAN_ELEMENT_THEORY = SGP/SGP4

EPOCH          = 2026-03-20T20:10:28.462080
MEAN_MOTION    = 15.81010417
ECCENTRICITY   = .0001218
INCLINATION    = 53.1597
RA_OF_ASC_NODE = 6.1347
ARG_OF_PERICENTER = 49.6521
MEAN_ANOMALY   = 310.4608

EPHEMERIS_TYPE = 0
CLASSIFICATION_TYPE = U
NORAD_CAT_ID   = 68055
ELEMENT_SET_NO = 999
REV_AT_EPOCH   = 298
BSTAR          = .16787E-2
MEAN_MOTION_DOT = .346448E-2
MEAN_MOTION_DDOT = 0

CCSDS_OMM_VERS = 2.0
CREATION_DATE  = 
ORIGINATOR     = 

OBJECT_NAME    = STARLINK-36845
OBJECT_ID      = 2026-041S
CENTER_NAME    = EARTH
REF_FRAME      = TEME
TIME_SYSTEM    = UTC
MEAN_ELEMENT_THEORY = SGP/SGP4

EPOCH          = 2026-03-20T20:08:18.646080
MEAN_MOTION    = 15.80979368
ECCENTRICITY   = .0000771
INCLINATION    = 53.1596
RA_OF_ASC_NODE = 6.1243
ARG_OF_PERICENTER = 68.2670
MEAN_ANOMALY   = 291.8435

EPHEMERIS_TYPE = 0
CLASSIFICATION_TYPE = U
NORAD_CAT_ID   = 68056
ELEMENT_SET_NO = 999
REV_AT_EPOCH   = 298
BSTAR          = .12583E-2
MEAN_MOTION_DOT = .256429E-2
MEAN_MOTION_DDOT = 0

CCSDS_OMM_VERS = 2.0
CREATION_DATE  = 
ORIGINATOR     = 

OBJECT_NAME    = STARLINK-36954
OBJECT_ID      = 2026-041T
CENTER_NAME    = EARTH
REF_FRAME      = TEME
TIME_SYSTEM    = UTC
MEAN_ELEMENT_THEORY = SGP/SGP4

EPOCH          = 2026-03-20T19:05:53.789280
MEAN_MOTION    = 15.75292330
ECCENTRICITY   = .0001057
INCLINATION    = 53.1607
RA_OF_ASC_NODE = 6.5741
ARG_OF_PERICENTER = 60.3341
MEAN_ANOMALY   = 299.7785

EPHEMERIS_TYPE = 0
CLASSIFICATION_TYPE = U
NORAD_CAT_ID   = 68057
ELEMENT_SET_NO = 999
REV_AT_EPOCH   = 297
BSTAR          = .101E-2
MEAN_MOTION_DOT = .157468E-2
MEAN_MOTION_DDOT = 0

CCSDS_OMM_VERS = 2.0
CREATION_DATE  = 
ORIGINATOR     = 

OBJECT_NAME    = STARLINK-36899
OBJECT_ID      = 2026-041U
CENTER_NAME    = EARTH
REF_FRAME      = TEME
TIME_SYSTEM    = UTC
MEAN_ELEMENT_THEORY = SGP/SGP4

EPOCH          = 2026-03-20T18:59:49.761024
MEAN_MOTION    = 15.75304531
ECCENTRICITY   = .0000956
INCLINATION    = 53.1605
RA_OF_ASC_NODE = 6.5458
ARG_OF_PERICENTER = 49.9235
MEAN_ANOMALY   = 310.1869

EPHEMERIS_TYPE = 0
CLASSIFICATION_TYPE = U
NORAD_CAT_ID   = 68058
ELEMENT_SET_NO = 999
REV_AT_EPOCH   = 297
BSTAR          = .16411E-2
MEAN_MOTION_DOT = .259528E-2
MEAN_MOTION_DDOT = 0

CCSDS_OMM_VERS = 2.0
CREATION_DATE  = 
ORIGINATOR     = 

OBJECT_NAME    = STARLINK-36917
OBJECT_ID      = 2026-041V
CENTER_NAME    = EARTH
REF_FRAME      = TEME
TIME_SYSTEM    = UTC
MEAN_ELEMENT_THEORY = SGP/SGP4

EPOCH          = 2026-03-20T18:00:02.998944
MEAN_MOTION    = 15.75239012
ECCENTRICITY   = .0001165
INCLINATION    = 53.1599
RA_OF_ASC_NODE = 6.6416
ARG_OF_PERICENTER = 85.8721
MEAN_ANOMALY   = 92.0389

EPHEMERIS_TYPE = 0
CLASSIFICATION_TYPE = U
NORAD_CAT_ID   = 68059
ELEMENT_SET_NO = 999
REV_AT_EPOCH   = 415
BSTAR          = .15372E-3
MEAN_MOTION_DOT = .22987E-3
MEAN_MOTION_DDOT = 0

CCSDS_OMM_VERS = 2.0
CREATION_DATE  = 
ORIGINATOR     = 

OBJECT_NAME    = STARLINK-36959
OBJECT_ID      = 2026-041W
CENTER_NAME    = EARTH
REF_FRAME      = TEME
TIME_SYSTEM    = UTC
MEAN_ELEMENT_THEORY = SGP/SGP4

EPOCH          = 2026-03-20T18:00:02.998944
MEAN_MOTION    = 15.75252572
ECCENTRICITY   = .0001
INCLINATION    = 53.1600
RA_OF_ASC_NODE = 6.6976
ARG_OF_PERICENTER = 76.5655
MEAN_ANOMALY   = 73.7234

EPHEMERIS_TYPE = 0
CLASSIFICATION_TYPE = U
NORAD_CAT_ID   = 68060
ELEMENT_SET_NO = 999
REV_AT_EPOCH   = 415
BSTAR          = -.58795E-4
MEAN_MOTION_DOT = -.9647E-4
MEAN_MOTION_DDOT = 0

CCSDS_OMM_VERS = 2.0
CREATION_DATE  = 
ORIGINATOR     = 

OBJECT_NAME    = STARLINK-36915
OBJECT_ID      = 2026-041X
CENTER_NAME    = EARTH
REF_FRAME      = TEME
TIME_SYSTEM    = UTC
MEAN_ELEMENT_THEORY = SGP/SGP4

EPOCH          = 2026-03-20T20:02:54.640032
MEAN_MOTION    = 15.80969620
ECCENTRICITY   = .0000867
INCLINATION    = 53.1596
RA_OF_ASC_NODE = 6.0981
ARG_OF_PERICENTER = 83.0170
MEAN_ANOMALY   = 277.0951

EPHEMERIS_TYPE = 0
CLASSIFICATION_TYPE = U
NORAD_CAT_ID   = 68061
ELEMENT_SET_NO = 999
REV_AT_EPOCH   = 298
BSTAR          = .10485E-2
MEAN_MOTION_DOT = .212355E-2
MEAN_MOTION_DDOT = 0

CCSDS_OMM_VERS = 2.0
CREATION_DATE  = 
ORIGINATOR     = 

OBJECT_NAME    = STARLINK-36952
OBJECT_ID      = 2026-041Y
CENTER_NAME    = EARTH
REF_FRAME      = TEME
TIME_SYSTEM    = UTC
MEAN_ELEMENT_THEORY = SGP/SGP4

EPOCH          = 2026-03-20T18:59:21.576480
MEAN_MOTION    = 15.75302744
ECCENTRICITY   = .0000764
INCLINATION    = 53.1607
RA_OF_ASC_NODE = 6.5439
ARG_OF_PERICENTER = 79.1056
MEAN_ANOMALY   = 281.0051

EPHEMERIS_TYPE = 0
CLASSIFICATION_TYPE = U
NORAD_CAT_ID   = 68062
ELEMENT_SET_NO = 999
REV_AT_EPOCH   = 297
BSTAR          = .12609E-2
MEAN_MOTION_DOT = .197775E-2
MEAN_MOTION_DDOT = 0

CCSDS_OMM_VERS = 2.0
CREATION_DATE  = 
ORIGINATOR     = 

OBJECT_NAME    = STARLINK-37000
OBJECT_ID      = 2026-041Z
CENTER_NAME    = EARTH
REF_FRAME      = TEME
TIME_SYSTEM    = UTC
MEAN_ELEMENT_THEORY = SGP/SGP4

EPOCH          = 2026-03-19T09:06:55.838880
MEAN_MOTION    = 15.80839388
ECCENTRICITY   = .00003875
INCLINATION    = 53.1597
RA_OF_ASC_NODE = 13.3751
ARG_OF_PERICENTER = 129.0929
MEAN_ANOMALY   = 231.0129

EPHEMERIS_TYPE = 0
CLASSIFICATION_TYPE = U
NORAD_CAT_ID   = 68063
ELEMENT_SET_NO = 999
REV_AT_EPOCH   = 275
BSTAR          = -.12107026E-3
MEAN_MOTION_DOT = -.24486E-3
MEAN_MOTION_DDOT = 0

CCSDS_OMM_VERS = 2.0
CREATION_DATE  = 
ORIGINATOR     = 

OBJECT_NAME    = STARLINK-36996
OBJECT_ID      = 2026-041AA
CENTER_NAME    = EARTH
REF_FRAME      = TEME
TIME_SYSTEM    = UTC
MEAN_ELEMENT_THEORY = SGP/SGP4

EPOCH          = 2026-03-20T19:59:40.138944
MEAN_MOTION    = 15.80972825
ECCENTRICITY   = .0000731
INCLINATION    = 53.1596
RA_OF_ASC_NODE = 6.0831
ARG_OF_PERICENTER = 95.1305
MEAN_ANOMALY   = 264.9801

EPHEMERIS_TYPE = 0
CLASSIFICATION_TYPE = U
NORAD_CAT_ID   = 68064
ELEMENT_SET_NO = 999
REV_AT_EPOCH   = 298
BSTAR          = .12052E-2
MEAN_MOTION_DOT = .24518E-2
MEAN_MOTION_DDOT = 0

CCSDS_OMM_VERS = 2.0
CREATION_DATE  = 
ORIGINATOR     = 

OBJECT_NAME    = STARLINK-36836
OBJECT_ID      = 2026-041AB
CENTER_NAME    = EARTH
REF_FRAME      = TEME
TIME_SYSTEM    = UTC
MEAN_ELEMENT_THEORY = SGP/SGP4

EPOCH          = 2026-03-20T19:57:30.434400
MEAN_MOTION    = 15.80987102
ECCENTRICITY   = .0001019
INCLINATION    = 53.1595
RA_OF_ASC_NODE = 6.0728
ARG_OF_PERICENTER = 83.6660
MEAN_ANOMALY   = 276.4479

EPHEMERIS_TYPE = 0
CLASSIFICATION_TYPE = U
NORAD_CAT_ID   = 68065
ELEMENT_SET_NO = 999
REV_AT_EPOCH   = 298
BSTAR          = .12077E-2
MEAN_MOTION_DOT = .245855E-2
MEAN_MOTION_DDOT = 0

